H1 CPF  1  HTS 2017  4 10 12  6001 starlette        NONE
H2  7501001 1134     7646 2017 04 10  0  0  0 2017 04 15  0  0  0   180 1 1  0 0 0
H5  0.0750 
H9 
10 0 57855  21960.00000  0   -2946398.216   -5790680.237    3055452.866
10 0 57855  22140.00000  0   -2306649.411   -6454924.013    2147226.805
10 0 57855  22320.00000  0   -1601837.052   -6913534.006    1164157.233
10 0 57855  22500.00000  0    -850924.249   -7152846.450     140615.802
10 0 57855  22680.00000  0     -74114.613   -7166853.294    -887823.312
10 0 57855  22860.00000  0     707828.686   -6957261.924   -1885850.092
10 0 57855  23040.00000  0    1474252.172   -6533187.865   -2819808.178
10 0 57855  23220.00000  0    2205229.887   -5910534.009   -3658927.627
10 0 57855  23400.00000  0    2882101.494   -5111127.423   -4376345.794
10 0 57855  23580.00000  0    3487915.900   -4161694.725   -4949886.030
10 0 57855  23760.00000  0    4007774.523   -3092752.854   -5362588.074
10 0 57855  23940.00000  0    4429078.250   -1937487.383   -5603006.590
10 0 57855  24120.00000  0    4741695.881    -730670.518   -5665310.771
10 0 57855  24300.00000  0    4938071.557     492354.574   -5549219.430
10 0 57855  24480.00000  0    5013285.524    1696606.649   -5259799.815
10 0 57855  24660.00000  0    4965082.057    2848308.409   -4807159.486
10 0 57855  24840.00000  0    4793876.632    3915643.126   -4206055.826
10 0 57855  25020.00000  0    4502747.470    4869435.381   -3475435.876
10 0 57855  25200.00000  0    4097412.341    5683763.163   -2637913.963
10 0 57855  25380.00000  0    3586187.866    6336507.396   -1719191.731
10 0 57855  25560.00000  0    2979926.061    6809843.475    -747420.971
10 0 57855  25740.00000  0    2291918.078    7090674.162     247493.925
10 0 57855  25920.00000  0    1537753.275    7170994.836    1234653.733
10 0 57855  26100.00000  0     735124.495    7048180.417    2182978.975
10 0 57855  26280.00000  0     -96431.658    6725181.370    3062077.062
10 0 57855  26460.00000  0    -935873.163    6210609.018    3843153.163
10 0 57855  26640.00000  0   -1761078.952    5518685.227    4499945.833
10 0 57855  26820.00000  0   -2549364.531    4669030.669    5009659.308
10 0 57855  27000.00000  0   -3278080.523    3686276.618    5353854.444
10 0 57855  27180.00000  0   -3925290.748    2599488.682    5519263.691
10 0 57855  27360.00000  0   -4470512.520    1441386.755    5498479.392
10 0 57855  27540.00000  0   -4895487.289     247367.448    5290459.475
10 0 57855  27720.00000  0   -5184942.445    -945648.690    4900800.820
10 0 57855  27900.00000  0   -5327299.868   -2100505.451    4341739.118
10 0 57855  28080.00000  0   -5315283.235   -3181183.589    3631842.725
10 0 57855  28260.00000  0   -5146367.343   -4154183.098    2795387.935
10 0 57855  28440.00000  0   -4823028.608   -4989827.927    1861432.860
10 0 57855  28620.00000  0   -4352766.231   -5663405.326     862632.312
10 0 57855  28800.00000  0   -3747882.846   -6156058.998    -166130.849
10 0 57855  28980.00000  0   -3025041.309   -6455378.947   -1189205.740
10 0 57855  29160.00000  0   -2204632.758   -6555659.329   -2171626.841
10 0 57855  29340.00000  0   -1310007.311   -6457829.307   -3080466.409
10 0 57855  29520.00000  0    -366625.596   -6169091.152   -3886011.489
10 0 57855  29700.00000  0     598809.463   -5702321.782   -4562714.931
10 0 57855  29880.00000  0    1559192.475   -5075308.105   -5089899.403
10 0 57855  30060.00000  0    2487792.838   -4309885.503   -5452218.331
10 0 57855  30240.00000  0    3358952.098   -3431038.451   -5639896.024
10 0 57855  30420.00000  0    4148693.778   -2466008.148   -5648773.179
10 0 57855  30600.00000  0    4835245.685   -1443443.324   -5480194.230
10 0 57855  30780.00000  0    5399486.035    -392611.542   -5140772.068
10 0 57855  30960.00000  0    5825326.052     657324.136   -4642054.322
10 0 57855  31140.00000  0    6100037.096    1677962.917   -4000108.067
10 0 57855  31320.00000  0    6214530.261    2642261.614   -3235039.242
10 0 57855  31500.00000  0    6163594.960    3525077.861   -2370453.742
10 0 57855  31680.00000  0    5946093.726    4303668.940   -1432859.057
10 0 57855  31860.00000  0    5565105.787    4958148.022    -451007.193
10 0 57855  32040.00000  0    5028012.739    5471900.378     544819.990
10 0 57855  32220.00000  0    4346512.492    5831959.693    1523585.018
10 0 57855  32400.00000  0    3536544.593    6029338.003    2454326.306
10 0 57855  32580.00000  0    2618108.480    6059298.821    3307040.726
10 0 57855  32760.00000  0    1614956.779    5921557.995    4053602.111
10 0 57855  32940.00000  0     554148.581    5620397.733    4668695.828
10 0 57855  33120.00000  0    -534549.613    5164673.383    5130743.308
10 0 57855  33300.00000  0   -1619421.953    4567691.400    5422774.889
10 0 57855  33480.00000  0   -2667709.992    3846947.740    5533206.065
10 0 57855  33660.00000  0   -3646653.471    3023712.797    5456476.042
10 0 57855  33840.00000  0   -4524638.777    2122454.243    5193494.782
10 0 57855  34020.00000  0   -5272407.787    1170098.245    4751842.699
10 0 57855  34200.00000  0   -5864258.935     195148.533    4145679.937
10 0 57855  34380.00000  0   -6279165.010    -773300.877    3395344.231
10 0 57855  34560.00000  0   -6501734.504   -1706613.025    2526636.104
10 0 57855  34740.00000  0   -6522941.187   -2577657.790    1569812.672
10 0 57855  34920.00000  0   -6340559.796   -3361797.390     558340.375
10 0 57855  35100.00000  0   -5959267.744   -4037739.794    -472511.468
10 0 57855  35280.00000  0   -5390414.464   -4588206.047   -1487139.403
10 0 57855  35460.00000  0   -4651483.749   -5000375.690   -2451040.748
10 0 57855  35640.00000  0   -3765304.853   -5266097.218   -3332121.478
10 0 57855  35820.00000  0   -2759087.672   -5381877.063   -4101809.948
10 0 57855  36000.00000  0   -1663357.651   -5348678.239   -4735937.394
10 0 57855  36180.00000  0    -510859.812   -5171570.127   -5215370.074
10 0 57855  36360.00000  0     664510.070   -4859276.159   -5526401.745
10 0 57855  36540.00000  0    1828707.836   -4423663.414   -5660931.746
10 0 57855  36720.00000  0    2948454.892   -3879211.681   -5616461.886
10 0 57855  36900.00000  0    3992058.543   -3242488.499   -5395945.355
10 0 57855  37080.00000  0    4930137.918   -2531646.580   -5007515.755
10 0 57855  37260.00000  0    5736261.427   -1765955.323   -4464124.716
10 0 57855  37440.00000  0    6387510.124    -965368.390   -3783107.138
10 0 57855  37620.00000  0    6864975.525    -150121.975   -2985681.280
10 0 57855  37800.00000  0    7154194.329     659639.693   -2096390.045
10 0 57855  37980.00000  0    7245524.272    1444218.065   -1142485.821
10 0 57855  38160.00000  0    7134456.410    2184701.350    -153256.502
10 0 57855  38340.00000  0    6821853.553    2863298.727     840708.387
10 0 57855  38520.00000  0    6314098.916    3463670.432    1808309.607
10 0 57855  38700.00000  0    5623141.021    3971253.664    2718784.407
10 0 57855  38880.00000  0    4766412.261    4373584.835    3542600.849
10 0 57855  39060.00000  0    3766596.667    4660611.836    4252383.721
10 0 57855  39240.00000  0    2651226.102    4824987.515    4823847.481
10 0 57855  39420.00000  0    1452088.549    4862330.401    5236707.882
10 0 57855  39600.00000  0     204437.839    4771435.578    5475530.467
10 0 57855  39780.00000  0   -1053992.625    4554421.873    5530471.464
10 0 57855  39960.00000  0   -2284160.819    4216794.430    5397861.278
10 0 57855  40140.00000  0   -3447038.720    3767402.933    5080579.363
10 0 57855  40320.00000  0   -4505040.481    3218282.814    4588175.755
10 0 57855  40500.00000  0   -5423493.947    2584364.510    3936696.635
10 0 57855  40680.00000  0   -6172062.369    1883046.254    3148188.290
10 0 57855  40860.00000  0   -6726017.893    1133647.393    2249889.730
10 0 57855  41040.00000  0   -7067281.398     356767.575    1273149.245
10 0 57855  41220.00000  0   -7185151.141    -426414.673     252122.512
10 0 57855  41400.00000  0   -7076664.142   -1194860.179    -777663.421
10 0 57855  41580.00000  0   -6746573.042   -1928355.450   -1780779.543
10 0 57855  41760.00000  0   -6206960.786   -2608125.476   -2723300.421
10 0 57855  41940.00000  0   -5476544.289   -3217340.888   -3574063.060
10 0 57855  42120.00000  0   -4579743.125   -3741500.312   -4305716.367
10 0 57855  42300.00000  0   -3545598.368   -4168686.886   -4895528.735
10 0 57855  42480.00000  0   -2406621.001   -4489708.662   -5325947.925
10 0 57855  42660.00000  0   -1197637.376   -4698141.782   -5584927.246
10 0 57855  42840.00000  0      45319.629   -4790299.732   -5666046.112
10 0 57855  43020.00000  0    1286042.696   -4765150.064   -5568457.959
10 0 57855  43200.00000  0    2489089.116   -4624199.799   -5296699.735
10 0 57855  43380.00000  0    3620626.480   -4371365.530   -4860393.191
10 0 57855  43560.00000  0    4649190.251   -4012835.257   -4273858.041
10 0 57855  43740.00000  0    5546357.746   -3556928.100   -3555653.501
10 0 57855  43920.00000  0    6287349.102   -3013955.074   -2728059.366
10 0 57855  44100.00000  0    6851564.397   -2396075.668   -1816499.856
10 0 57855  44280.00000  0    7223057.609   -1717142.480    -848910.028
10 0 57855  44460.00000  0    7390946.078    -992527.627     144955.120
10 0 57855  44640.00000  0    7349749.318    -238920.250    1134271.207
10 0 57855  44820.00000  0    7099642.799     525914.741    2087953.594
10 0 57855  45000.00000  0    6646609.404    1283424.790    2975519.807
10 0 57855  45180.00000  0    6002467.869    2014611.124    3767993.535
10 0 57855  45360.00000  0    5184757.153    2700428.112    4438833.575
10 0 57855  45540.00000  0    4216452.512    3322240.553    4964862.238
10 0 57855  45720.00000  0    3125496.424    3862333.935    5327161.055
10 0 57855  45900.00000  0    1944124.513    4304466.727    5511894.945
10 0 57855  46080.00000  0     707984.826    4634444.057    5511009.489
10 0 57855  46260.00000  0    -544938.649    4840689.536    5322757.764
99
